NAVSTAR 70 (USA 251)    
1 39741U 14026A   22135.71713091 -.00000073  00000+0  00000+0 0  9998
2 39741  56.5539  29.5038 0027579 307.5620  52.2280  2.00558251 58582
COSMOS 2496             
1 39761U 14028A   22135.95865366  .00000042  00000+0  22836-3 0  9991
2 39761  82.4449 324.0561 0020443  92.3921 267.9510 12.42890841362087
COSMOS 2497             
1 39762U 14028B   22135.92973139  .00000042  00000+0  23188-3 0  9998
2 39762  82.4497 325.1709 0020889  85.3921 274.9547 12.42871665362084
COSMOS 2498             
1 39763U 14028C   22135.90154514  .00000038  00000+0  20010-3 0  9991
2 39763  82.4458 324.2527 0021492  86.4670 273.8875 12.42903929362085
ALOS-2                  
1 39766U 14029A   22136.14399463 -.00000026  00000+0  33374-5 0  9993
2 39766  97.9205 233.7336 0001648  93.0132 267.1266 14.79472309430855
UNIFORM 1               
1 39767U 14029B   22136.12432862  .00001310  00000+0  16182-3 0  9995
2 39767  97.8355 229.4374 0005306 185.6838 174.4318 14.84482397431988
SOCRATES                
1 39768U 14029C   22136.18755912  .00001049  00000+0  12926-3 0  9997
2 39768  97.8631 234.9606 0005934 213.0941 146.9923 14.85006388432174
RISING 2                
1 39769U 14029D   22136.14102310  .00000685  00000+0  91648-4 0  9996
2 39769  97.7985 220.3412 0004255 168.1069 192.0260 14.82515117431544
SPROUT                  
1 39770U 14029E   22136.23033008  .00005618  00000+0  58079-3 0  9996
2 39770  97.9361 252.9850 0008881 185.7622 174.3530 14.90488633432862
EUTELSAT 3B             
1 39773U 14030A   22136.18313332  .00000030  00000+0  00000+0 0  9996
2 39773   0.0704  25.1360 0004545 121.5318 156.2435  1.00272203 29248
COSMOS 2500 [GLONASS-M] 
1 40001U 14032A   22135.93248579 -.00000044  00000+0  00000+0 0  9992
2 40001  65.7831   4.0923 0004246 192.1275 218.0054  2.13102518 61637
KAZEOSAT 2              
1 40010U 14033A   22136.17141674  .00000355  00000+0  51014-4 0  9998
2 40010  97.7277  22.5234 0014760 179.3041 180.8203 14.82070772427662
HODOYOSHI-4             
1 40011U 14033B   22136.16969081  .00000713  00000+0  96692-4 0  9997
2 40011  97.6830  10.7336 0026354 180.2955 179.8257 14.81613295427317
UNISAT-6                
1 40012U 14033C   22135.47941781  .00001618  00000+0  24303-3 0  9992
2 40012  97.6627 325.2067 0056096 265.7466  93.7332 14.74805304425120
DEIMOS-2                
1 40013U 14033D   22136.16512680  .00001084  00000+0  13247-3 0  9994
2 40013  97.7631  34.1148 0000965 125.3026 234.8302 14.85257646428401
BUGSAT-1 (TITA)         
1 40014U 14033E   22136.24403177  .00001350  00000+0  12321-3 0  9992
2 40014  98.1442 133.3416 0031500 142.0150 218.3303 14.96540548431321
HODOYOSHI-3             
1 40015U 14033F   22135.85851469  .00000716  00000+0  10290-3 0  9998
2 40015  97.6453 351.4667 0036066 207.1776 152.7549 14.78873208426495
SAUDISAT 4              
1 40016U 14033G   22135.81707290  .00000545  00000+0  85863-4 0  9996
2 40016  97.6434 332.4588 0046743 246.6072 113.0219 14.75525611425588
APRIZESAT 9             
1 40018U 14033J   22136.07613853  .00000464  00000+0  82122-4 0  9993
2 40018  97.7134 308.4153 0070135 318.3788  41.2093 14.70231626424027
APRIZESAT 10            
1 40019U 14033K   22136.03360108  .00000435  00000+0  81523-4 0  9994
2 40019  97.7651 297.9537 0083959   0.8377 359.2954 14.67279053423226
BRITE-CA1 (TORONTO)     
1 40020U 14033L   22136.01942564  .00000630  00000+0  11466-3 0  9991
2 40020  97.7749 296.6368 0087016   7.8973 352.3578 14.67002432423019
DUCHIFAT-1              
1 40021U 14033M   22135.83012273  .00004741  00000+0  46542-3 0  9996
2 40021  98.0109  85.4502 0013456 141.6160 218.6019 14.92621343429836
NANOSATC-BR1            
1 40024U 14033Q   22135.81033830  .00003997  00000+0  40442-3 0  9994
2 40024  97.9844  78.9695 0012696 147.6933 212.5065 14.91510522429112
QB50P1                  
1 40025U 14033R   22135.83040359  .00003771  00000+0  39325-3 0  9999
2 40025  97.9596  72.9831 0012683 157.3735 202.8044 14.90327091428908
DTUSAT-2                
1 40030U 14033W   22135.73760199  .00002998  00000+0  31801-3 0  9996
2 40030  97.9369  68.3796 0012249 154.2803 205.9025 14.89797847428777
QB50P2                  
1 40032U 14033Y   22135.84349037  .00003161  00000+0  33521-3 0  9998
2 40032  97.9372  68.4987 0012165 154.6521 205.5295 14.89769815428762
PERSEUS-M2              
1 40037U 14033AD  22135.73937946  .00001192  00000+0  13901-3 0  9995
2 40037  97.8970  58.1469 0014145 179.3211 180.8027 14.87033427428265
PERSEUS-M1              
1 40039U 14033AF  22135.79288500  .00001142  00000+0  13466-3 0  9999
2 40039  97.8875  56.0227 0014032 178.1509 181.9761 14.86644766428150
POLYITAN-1              
1 40042U 14033AJ  22135.77764059  .00004834  00000+0  50228-3 0  9997
2 40042  97.9700  74.0772 0015088 150.3508 209.8567 14.90309163428787
TIGRISAT                
1 40043U 14033AK  22135.52920967  .00001297  00000+0  19542-3 0  9997
2 40043  97.6574 326.5666 0057845 263.0042  96.4586 14.74928880424774
LEMUR-1                 
1 40044U 14033AL  22135.78252098  .00001300  00000+0  19672-3 0  9998
2 40044  97.6590 326.0845 0056982 264.8782  94.5922 14.74770628424664
AEROCUBE 6A             
1 40045U 14033AM  22135.80067326  .00001437  00000+0  20934-3 0  9994
2 40045  97.6689 335.4774 0055371 249.9372 109.5873 14.76305930424966
AEROCUBE 6B             
1 40046U 14033AN  22135.78447342  .00002872  00000+0  40872-3 0  9999
2 40046  97.6596 333.9477 0054548 248.1731 111.3672 14.76574123424962
SPOT 7                  
1 40053U 14034A   22136.18796714  .00000220  00000+0  57031-4 0  9994
2 40053  98.1734 204.1562 0001056  84.2178 275.9150 14.58554671419388
CANX-4                  
1 40055U 14034C   22135.98953092  .00001153  00000+0  17764-3 0  9991
2 40055  98.3522 291.8865 0015348 100.8695 259.4241 14.75378032423965
CANX-5                  
1 40056U 14034D   22135.99591802  .00001149  00000+0  17715-3 0  9991
2 40056  98.3522 291.8743 0015390 101.0345 259.2594 14.75372343423961
OCO 2                   
1 40059U 14035A   22135.93590364  .00000512  00000+0  12358-3 0  9992
2 40059  98.2008  77.6574 0001553  96.8536 263.2839 14.57121436418598
GONETS-M 8              
1 40061U 14036A   22135.89939160  .00000020  00000+0  71711-4 0  9995
2 40061  82.5102 155.1081 0029808 164.0876 196.1152 12.42912668356955
GONETS-M 9              
1 40062U 14036B   22135.90164156  .00000029  00000+0  13926-3 0  9995
2 40062  82.5092 155.1400 0022893 169.6248 190.5312 12.42882364356944
GONETS-M 10             
1 40063U 14036C   22136.20364650  .00000038  00000+0  20019-3 0  9992
2 40063  82.5099 154.9088 0021984 155.5818 204.6311 12.42882117356984
METEOR-M 2              
1 40069U 14037A   22136.06752842  .00000037  00000+0  36559-4 0  9993
2 40069  98.4339 155.3470 0006869  61.5696 298.6177 14.20707114407260
DX1                     
1 40071U 14037C   22136.06025745  .00000746  00000+0  10183-3 0  9992
2 40071  98.4147   3.1828 0009552  64.7624 295.4591 14.81808337424546
SKYSAT-B                
1 40072U 14037D   22136.15504983  .00000788  00000+0  10756-3 0  9991
2 40072  98.4140   3.0566 0007564  64.4044 295.7949 14.81673518424543
UKUBE-1                 
1 40074U 14037F   22136.21838612  .00001799  00000+0  21651-3 0  9998
2 40074  98.3869  15.1966 0005474  42.6834 317.4809 14.85261107425283
AISSAT 2                
1 40075U 14037G   22136.19128487  .00000914  00000+0  11966-3 0  9994
2 40075  98.4008   8.8725 0006890  69.3673 290.8260 14.83024731424879
TECHDEMOSAT-1 (TDS-1)   
1 40076U 14037H   22136.18041454  .00002901  00000+0  34277-3 0  9990
2 40076  98.3957   7.3329 0007005 164.1309 196.0125 14.85508632424994
O3B FM3                 
1 40079U 14038A   22135.52383719 -.00000012  00000+0  00000+0 0  9999
2 40079   0.0557  10.3815 0004934  55.8643 293.8092  5.00115307138320
O3B FM7                 
1 40080U 14038B   22135.27002908 -.00000011  00000+0  00000+0 0  9990
2 40080   0.0601  11.1033 0000877  17.4305 331.4743  5.00116020143145
O3B FM6                 
1 40081U 14038C   22135.29639745 -.00000011  00000+0  00000+0 0  9998
2 40081   0.0559   9.3309 0002653  45.7944 304.9029  5.00115406143093
O3B FM8                 
1 40082U 14038D   22135.15048784 -.00000011  00000+0  00000+0 0  9991
2 40082   0.0576   6.6719 0002747  45.8324 307.5240  5.00115536143206
ORBCOMM FM109           
1 40086U 14040A   22135.81900106  .00000505  00000+0  15423-3 0  9992
2 40086  47.0044 289.5836 0002279 178.6065 181.4826 14.55060195416729
ORBCOMM FM107           
1 40087U 14040B   22135.84108177  .00000475  00000+0  14728-3 0  9997
2 40087  47.0064 290.1969 0002437 189.5138 170.5701 14.55061036416675
ORBCOMM FM103           
1 40091U 14040F   22135.86480336  .00000488  00000+0  15017-3 0  9990
2 40091  47.0068 290.4086 0002175 169.5102 190.5828 14.55056522399648
NAVSTAR 71 (USA 256)    
1 40105U 14045A   22135.30481415  .00000097  00000+0  00000+0 0  9997
2 40105  54.6844 148.1270 0018641 109.5599 250.6900  2.00575702 56117
ASIASAT 8 (AMOS-7)      
1 40107U 14046A   22136.08868961 -.00000023  00000+0  00000+0 0  9991
2 40107   0.0594 109.0460 0002065 314.4600 198.3289  1.00271211 28525
YAOGAN 20A              
1 40109U 14047A   22136.10862425 -.00000208  00000+0 -16267-3 0  9998
2 40109  63.3895 263.5831 0257735   8.1403 352.3683 13.45216601381622
YAOGAN 20B              
1 40110U 14047B   22136.10881018  .00001203  00000+0  17940-2 0  9991
2 40110  63.3897 264.4415 0256780   8.0150 352.4850 13.45223281381608
YAOGAN 20C              
1 40111U 14047C   22135.95989133 -.00000061  00000+0  40512-4 0  9996
2 40111  63.3889 264.6848 0257760   8.4231 352.0997 13.45218014381588
WORLDVIEW-3 (WV-3)      
1 40115U 14048A   22133.12978845  .00000442  00000+0  58380-4 0  9990
2 40115  97.8552 208.5636 0000887  35.9236 324.2185 14.84810313419901
